{
  "type": "FeatureCollection",
  "features": [
    {
      "type": "Feature",
      "properties": {
        "norad_id": 38867,
        "name": "INTELSAT 23 (IS-23)",
        "group": "intelsat",
        "lat": 0.029393378774035535,
        "lon": 156.4212842231399,
        "alt_km": 35785.650417312114,
        "timestamp": "2025-12-25T07:41:09.390683+00:00",
        "meta_object_name": "INTELSAT 23 (IS-23)",
        "meta_object_id": "2012-057A",
        "meta_epoch": "2025-12-24T08:56:20.005728",
        "meta_mean_motion": 1.0029009,
        "meta_eccentricity": 0.0001332,
        "meta_inclination": 0.0163,
        "meta_ra_of_asc_node": 42.67,
        "meta_arg_of_pericenter": 258.6446,
        "meta_mean_anomaly": 232.9201,
        "meta_ephemeris_type": 0,
        "meta_classification_type": "U",
        "meta_norad_cat_id": 38867,
        "meta_element_set_no": 999,
        "meta_rev_at_epoch": 4820,
        "meta_bstar": 0,
        "meta_mean_motion_dot": -2.64e-06,
        "meta_mean_motion_ddot": 0,
        "tle_line1": "1 38867U 12057A   25358.37245377 -.00000264  00000+0  00000+0 0  9999",
        "tle_line2": "2 38867   0.0163  42.6700 0001332 258.6446 232.9201  1.00290090 48201"
      },
      "geometry": {
        "type": "Point",
        "coordinates": [
          156.4212842231399,
          0.029393378774035535
        ]
      }
    },
    {
      "type": "Feature",
      "properties": {
        "norad_id": 39360,
        "name": "FM-6",
        "group": "intelsat",
        "lat": 0.02046843921624326,
        "lon": 93.1877896494328,
        "alt_km": 35784.749986029405,
        "timestamp": "2025-12-25T07:41:09.390695+00:00",
        "meta_object_name": "FM-6",
        "meta_object_id": "2013-058A",
        "meta_epoch": "2025-12-24T11:33:38.657952",
        "meta_mean_motion": 1.00281075,
        "meta_eccentricity": 0.00026294,
        "meta_inclination": 0.0161,
        "meta_ra_of_asc_node": 72.2411,
        "meta_arg_of_pericenter": 117.6968,
        "meta_mean_anomaly": 320.5533,
        "meta_ephemeris_type": 0,
        "meta_classification_type": "U",
        "meta_norad_cat_id": 39360,
        "meta_element_set_no": 999,
        "meta_rev_at_epoch": 4432,
        "meta_bstar": 0,
        "meta_mean_motion_dot": 3e-08,
        "meta_mean_motion_ddot": 0,
        "tle_line1": "1 39360U 13058A   25358.48169743  .00000003  00000+0  00000+0 0  9994",
        "tle_line2": "2 39360   0.0161  72.2411 0002629 117.6968 320.5533  1.00281075 44323"
      },
      "geometry": {
        "type": "Point",
        "coordinates": [
          93.1877896494328,
          0.02046843921624326
        ]
      }
    },
    {
      "type": "Feature",
      "properties": {
        "norad_id": 40271,
        "name": "INTELSAT 30 (IS-30)",
        "group": "intelsat",
        "lat": 0.03453588164630207,
        "lon": 114.30831640447096,
        "alt_km": 35780.836679314256,
        "timestamp": "2025-12-25T07:41:09.390707+00:00",
        "meta_object_name": "INTELSAT 30 (IS-30)",
        "meta_object_id": "2014-062A",
        "meta_epoch": "2025-12-24T19:29:34.336608",
        "meta_mean_motion": 1.00269708,
        "meta_eccentricity": 0.00015129,
        "meta_inclination": 0.0142,
        "meta_ra_of_asc_node": 31.4313,
        "meta_arg_of_pericenter": 58.7013,
        "meta_mean_anomaly": 200.7822,
        "meta_ephemeris_type": 0,
        "meta_classification_type": "U",
        "meta_norad_cat_id": 40271,
        "meta_element_set_no": 999,
        "meta_rev_at_epoch": 504,
        "meta_bstar": 0,
        "meta_mean_motion_dot": -1.29e-06,
        "meta_mean_motion_ddot": 0,
        "tle_line1": "1 40271U 14062A   25358.81220297 -.00000129  00000+0  00000+0 0  9992",
        "tle_line2": "2 40271   0.0142  31.4313 0001512  58.7013 200.7822  1.00269708  5044"
      },
      "geometry": {
        "type": "Point",
        "coordinates": [
          114.30831640447096,
          0.03453588164630207
        ]
      }
    },
    {
      "type": "Feature",
      "properties": {
        "norad_id": 40333,
        "name": "DIRECTV 14",
        "group": "intelsat",
        "lat": 0.03135954759777403,
        "lon": 110.17306573663726,
        "alt_km": 35784.78944929667,
        "timestamp": "2025-12-25T07:41:09.390719+00:00",
        "meta_object_name": "DIRECTV 14",
        "meta_object_id": "2014-078B",
        "meta_epoch": "2025-12-24T12:37:43.773312",
        "meta_mean_motion": 1.00279829,
        "meta_eccentricity": 3.885e-05,
        "meta_inclination": 0.0184,
        "meta_ra_of_asc_node": 340.4706,
        "meta_arg_of_pericenter": 254.7884,
        "meta_mean_anomaly": 308.2619,
        "meta_ephemeris_type": 0,
        "meta_classification_type": "U",
        "meta_norad_cat_id": 40333,
        "meta_element_set_no": 999,
        "meta_rev_at_epoch": 4029,
        "meta_bstar": 0,
        "meta_mean_motion_dot": -1.06e-06,
        "meta_mean_motion_ddot": 0,
        "tle_line1": "1 40333U 14078B   25358.52620108 -.00000106  00000+0  00000+0 0  9996",
        "tle_line2": "2 40333   0.0184 340.4706 0000388 254.7884 308.2619  1.00279829 40291"
      },
      "geometry": {
        "type": "Point",
        "coordinates": [
          110.17306573663726,
          0.03135954759777403
        ]
      }
    },
    {
      "type": "Feature",
      "properties": {
        "norad_id": 40663,
        "name": "DIRECTV 15",
        "group": "intelsat",
        "lat": 0.026639552067225708,
        "lon": 106.52420621081657,
        "alt_km": 35783.30845551198,
        "timestamp": "2025-12-25T07:41:09.390731+00:00",
        "meta_object_name": "DIRECTV 15",
        "meta_object_id": "2015-026A",
        "meta_epoch": "2025-12-24T11:11:07.990944",
        "meta_mean_motion": 1.00283981,
        "meta_eccentricity": 0.00011805,
        "meta_inclination": 0.0101,
        "meta_ra_of_asc_node": 345.5401,
        "meta_arg_of_pericenter": 23.5118,
        "meta_mean_anomaly": 149.0802,
        "meta_ephemeris_type": 0,
        "meta_classification_type": "U",
        "meta_norad_cat_id": 40663,
        "meta_element_set_no": 999,
        "meta_rev_at_epoch": 3871,
        "meta_bstar": 0,
        "meta_mean_motion_dot": -8.3e-07,
        "meta_mean_motion_ddot": 0,
        "tle_line1": "1 40663U 15026A   25358.46606471 -.00000083  00000+0  00000+0 0  9990",
        "tle_line2": "2 40663   0.0101 345.5401 0001180  23.5118 149.0802  1.00283981 38710"
      },
      "geometry": {
        "type": "Point",
        "coordinates": [
          106.52420621081657,
          0.026639552067225708
        ]
      }
    },
    {
      "type": "Feature",
      "properties": {
        "norad_id": 40664,
        "name": "SKY MEXICO-1",
        "group": "intelsat",
        "lat": 0.025608988448563984,
        "lon": 130.5835212794693,
        "alt_km": 35796.5503254226,
        "timestamp": "2025-12-25T07:41:09.390743+00:00",
        "meta_object_name": "SKY MEXICO-1",
        "meta_object_id": "2015-026B",
        "meta_epoch": "2025-12-24T11:53:52.482912",
        "meta_mean_motion": 1.00270263,
        "meta_eccentricity": 0.00025222,
        "meta_inclination": 0.0127,
        "meta_ra_of_asc_node": 356.0381,
        "meta_arg_of_pericenter": 293.7929,
        "meta_mean_anomaly": 263.1411,
        "meta_ephemeris_type": 0,
        "meta_classification_type": "U",
        "meta_norad_cat_id": 40664,
        "meta_element_set_no": 999,
        "meta_rev_at_epoch": 3870,
        "meta_bstar": 0,
        "meta_mean_motion_dot": -2.13e-06,
        "meta_mean_motion_ddot": 0,
        "tle_line1": "1 40664U 15026B   25358.49574633 -.00000213  00000+0  00000+0 0  9993",
        "tle_line2": "2 40664   0.0127 356.0381 0002522 293.7929 263.1411  1.00270263 38707"
      },
      "geometry": {
        "type": "Point",
        "coordinates": [
          130.5835212794693,
          0.025608988448563984
        ]
      }
    },
    {
      "type": "Feature",
      "properties": {
        "norad_id": 40874,
        "name": "INTELSAT 34 (IS-34)",
        "group": "intelsat",
        "lat": 0.004559059878294828,
        "lon": 153.8634695415774,
        "alt_km": 35784.034796503984,
        "timestamp": "2025-12-25T07:41:09.390755+00:00",
        "meta_object_name": "INTELSAT 34 (IS-34)",
        "meta_object_id": "2015-039A",
        "meta_epoch": "2025-12-24T19:41:03.236640",
        "meta_mean_motion": 1.00269915,
        "meta_eccentricity": 6.326e-05,
        "meta_inclination": 0.0112,
        "meta_ra_of_asc_node": 321.6205,
        "meta_arg_of_pericenter": 200.7023,
        "meta_mean_anomaly": 171.0333,
        "meta_ephemeris_type": 0,
        "meta_classification_type": "U",
        "meta_norad_cat_id": 40874,
        "meta_element_set_no": 999,
        "meta_rev_at_epoch": 3787,
        "meta_bstar": 0,
        "meta_mean_motion_dot": -2.64e-06,
        "meta_mean_motion_ddot": 0,
        "tle_line1": "1 40874U 15039A   25358.82017635 -.00000264  00000+0  00000+0 0  9997",
        "tle_line2": "2 40874   0.0112 321.6205 0000632 200.7023 171.0333  1.00269915 37879"
      },
      "geometry": {
        "type": "Point",
        "coordinates": [
          153.8634695415774,
          0.004559059878294828
        ]
      }
    }
  ]
}